[
  {
    "StationCode": "KCAPACIF287",
    "StationName": "Alphabet Streets",
    "StationAddress": "Pacific Palisades, CA",
    "StationFullAddress": "Alphabet Streets, Pacific Palisades, CA 90272",
    "ZipCode": "90272",
    "Lat": 34.08066,
    "Lng": -118.54459
  },
  {
    "StationCode": "KCALOSAN1231",
    "StationName": "Bel Air",
    "StationAddress": "Los Angeles, CA",
    "StationFullAddress": "Bel Air, Los Angeles, CA 90077",
    "ZipCode": "90077",
    "Lat": 34.10536,
    "Lng": -118.45591
  },
  {
    "StationCode": "KCALOSAN902",
    "StationName": "Bel Air",
    "StationAddress": "Los Angeles, CA",
    "StationFullAddress": "Bel Air, Los Angeles, CA 90077",
    "ZipCode": "90077",
    "Lat": 34.10536,
    "Lng": -118.45591
  },
  {
    "StationCode": "KCABEVER36",
    "StationName": "Benedict Canyon/Mulholland",
    "StationAddress": "Beverly Hills, CA",
    "StationFullAddress": "13211 Mulholland Drive, Beverly Hills, CA 90210",
    "ZipCode": "90210",
    "Lat": 34.128809,
    "Lng": -118.420488
  },
  {
    "StationCode": "KCALOSAN1246",
    "StationName": "Beverly Crest",
    "StationAddress": "Los Angeles, CA",
    "StationFullAddress": "Beverly Crest, Los Angeles, CA 90210",
    "ZipCode": "90210",
    "Lat": 34.10251,
    "Lng": -118.41505
  },
  {
    "StationCode": "KCALOSAN724",
    "StationName": "Brentwood",
    "StationAddress": "Los Angeles, CA",
    "StationFullAddress": "Brentwood, Los Angeles, CA 90049",
    "ZipCode": "90049",
    "Lat": 34.08749,
    "Lng": -118.48976
  },
  {
    "StationCode": "KCALOSAN1017",
    "StationName": "Brentwood",
    "StationAddress": "Los Angeles, CA",
    "StationFullAddress": "Brentwood, Los Angeles, CA 90049",
    "ZipCode": "90049",
    "Lat": 34.08749,
    "Lng": -118.48976
  },
  {
    "StationCode": "KCALOSAN895",
    "StationName": "Brentwood",
    "StationAddress": "Los Angeles, CA",
    "StationFullAddress": "Brentwood, Los Angeles, CA 90049",
    "ZipCode": "90049",
    "Lat": 34.08749,
    "Lng": -118.48976
  },
  {
    "StationCode": "KCALOSAN938",
    "StationName": "Brentwood",
    "StationAddress": "Los Angeles, CA",
    "StationFullAddress": "Brentwood, Los Angeles, CA 90049",
    "ZipCode": "90049",
    "Lat": 34.08749,
    "Lng": -118.48976
  },
  {
    "StationCode": "KCAMALIB166",
    "StationName": "Broad Beach",
    "StationAddress": "Malibu, CA",
    "StationFullAddress": "31250 Broad Beach Rd, Malibu, CA 90265",
    "ZipCode": "90265",
    "Lat": 34.031246,
    "Lng": -118.788193
  },
  {
    "StationCode": "KCACALAB70",
    "StationName": "Calabasas Highlands",
    "StationAddress": "Calabasas, CA",
    "StationFullAddress": "Calabasas Highlands, Calabasas, CA 91302",
    "ZipCode": "91302",
    "Lat": 34.12295,
    "Lng": -118.67193
  },
  {
    "StationCode": "KCALOSAN872",
    "StationName": "Del Rey",
    "StationAddress": "Los Angeles, CA",
    "StationFullAddress": "Del Rey, Los Angeles, CA 90066",
    "ZipCode": "90066",
    "Lat": 34.00166,
    "Lng": -118.43104
  },
  {
    "StationCode": "KCAENCIN812",
    "StationName": "Encino",
    "StationAddress": "Encino, CA",
    "StationFullAddress": "Encino, CA 91436",
    "ZipCode": "91436",
    "Lat": 34.15219,
    "Lng": -118.49053
  },
  {
    "StationCode": "KCATOPAN68",
    "StationName": "Fernwood",
    "StationAddress": "Topanga, CA",
    "StationFullAddress": "913 Fernwood Pacific Drive, Topanga, CA 90290",
    "ZipCode": "90290",
    "Lat": 34.081200,
    "Lng": -118.604050
  },
  {
    "StationCode": "KCATOPAN8",
    "StationName": "L.A.Co.F.D. Helistop 69Bravo",
    "StationAddress": "Topanga, CA",
    "StationFullAddress": "401 S. Topanga Cyn Blvd, Topanga, CA 90290",
    "ZipCode": "90290",
    "Lat": 34.0837306,
    "Lng": -118.5995221
  },
  {
    "StationCode": "KCAMALIB140",
    "StationName": "Latigo Canyon",
    "StationAddress": "Malibu, CA",
    "StationFullAddress": "5092 Latigo Canyon Road, Malibu, CA 90265",
    "ZipCode": "90265",
    "Lat": 34.0385,
    "Lng": -119.2294
  },
  {
    "StationCode": "KCAMALIB162",
    "StationName": "Latigo Canyon",
    "StationAddress": "Malibu, CA",
    "StationFullAddress": "5092 Latigo Canyon Road, Malibu, CA 90265",
    "ZipCode": "90265",
    "Lat": 34.0385,
    "Lng": -119.2294
  },
  {
    "StationCode": "KCALOSAN803",
    "StationName": "Lower Bel Air",
    "StationAddress": "Los Angeles, CA",
    "StationFullAddress": "Lower Bel Air, Los Angeles, CA 90077",
    "ZipCode": "90077",
    "Lat": 34.10536,
    "Lng": -118.45591
  },
  {
    "StationCode": "KCAMALIB108",
    "StationName": "Malibu",
    "StationAddress": "Malibu, CA",
    "StationFullAddress": "Malibu, CA 90265",
    "ZipCode": "90265",
    "Lat": 34.031246,
    "Lng": -118.788193
  },
  {
    "StationCode": "KCAMALIB114",
    "StationName": "Malibu",
    "StationAddress": "Malibu, CA",
    "StationFullAddress": "Malibu, CA 90265",
    "ZipCode": "90265",
    "Lat": 34.031246,
    "Lng": -118.788193
  },
  {
    "StationCode": "KCAMALIB147",
    "StationName": "Malibu",
    "StationAddress": "Malibu, CA",
    "StationFullAddress": "Malibu, CA 90265",
    "ZipCode": "90265",
    "Lat": 34.031246,
    "Lng": -118.788193
  },
  {
    "StationCode": "KCAMALIB87",
    "StationName": "Malibu",
    "StationAddress": "Malibu, CA",
    "StationFullAddress": "Malibu, CA 90265",
    "ZipCode": "90265",
    "Lat": 34.031246,
    "Lng": -118.788193
  },
  {
    "StationCode": "KCAMALIB62",
    "StationName": "Malibu Country Estates",
    "StationAddress": "Malibu, CA",
    "StationFullAddress": "Malibu Country Estates, Malibu, CA 90265",
    "ZipCode": "90265",
    "Lat": 34.031246,
    "Lng": -118.788193
  },
  {
    "StationCode": "KCAMALIB61",
    "StationName": "Malibu Springs - Vedder",
    "StationAddress": "Malibu, CA",
    "StationFullAddress": "Malibu Springs - Vedder, Malibu, CA 90265",
    "ZipCode": "90265",
    "Lat": 34.031246,
    "Lng": -118.788193
  },
  {
    "StationCode": "KCALOSAN364",
    "StationName": "Mar Vista Hill",
    "StationAddress": "Los Angeles, CA",
    "StationFullAddress": "Mar Vista Hill, Los Angeles, CA 90066",
    "ZipCode": "90066",
    "Lat": 34.00166,
    "Lng": -118.43104
  },
  {
    "StationCode": "KCAWOODL8",
    "StationName": "Mulholland Dr. and Canoga Ave.",
    "StationAddress": "Woodland Hills, CA",
    "StationFullAddress": "21329 Mulholland Drive, Woodland Hills, CA 91364",
    "ZipCode": "91364",
    "Lat": 34.144699,
    "Lng": -118.597554
  },
  {
    "StationCode": "KCAVENIC20",
    "StationName": "Oakwood Pentagon",
    "StationAddress": "Venice, CA",
    "StationFullAddress": "2009 Oakwood Ave, Venice, CA 90291",
    "ZipCode": "90291",
    "Lat": 33.9972,
    "Lng": -118.4639
  },
  {
    "StationCode": "KCASANTA3310",
    "StationName": "Ocean Park",
    "StationAddress": "Santa Monica, CA",
    "StationFullAddress": "Ocean Park, Santa Monica, CA 90405",
    "ZipCode": "90405",
    "Lat": 34.01208,
    "Lng": -118.4679
  },
  {
    "StationCode": "KCAPACIF208",
    "StationName": "Pacific Palisades",
    "StationAddress": "Pacific Palisades, CA",
    "StationFullAddress": "Pacific Palisades, CA 90272",
    "ZipCode": "90272",
    "Lat": 34.08066,
    "Lng": -118.54459
  },
  {
    "StationCode": "KCAPACIF227",
    "StationName": "Pacific Palisades",
    "StationAddress": "Pacific Palisades, CA",
    "StationFullAddress": "Pacific Palisades, CA 90272",
    "ZipCode": "90272",
    "Lat": 34.08066,
    "Lng": -118.54459
  },
  {
    "StationCode": "KCAPACIF272",
    "StationName": "Pacific Palisades",
    "StationAddress": "Pacific Palisades, CA",
    "StationFullAddress": "Pacific Palisades, CA 90272",
    "ZipCode": "90272",
    "Lat": 34.08066,
    "Lng": -118.54459
  },
  {
    "StationCode": "KCAPACIF320",
    "StationName": "Pacific Palisades",
    "StationAddress": "Pacific Palisades, CA",
    "StationFullAddress": "Pacific Palisades, CA 90272",
    "ZipCode": "90272",
    "Lat": 34.08066,
    "Lng": -118.54459
  },
  {
    "StationCode": "KCAPACIF132",
    "StationName": "Palisades Country Estates",
    "StationAddress": "Pacific Palisades, CA",
    "StationFullAddress": "Palisades Country Estates, Pacific Palisades, CA 90272",
    "ZipCode": "90272",
    "Lat": 34.08066,
    "Lng": -118.54459
  },
  {
    "StationCode": "KCASANTA4210",
    "StationName": "Pico",
    "StationAddress": "Santa Monica, CA",
    "StationFullAddress": "Pico, Santa Monica, CA 90404",
    "ZipCode": "90404",
    "Lat": 34.03,
    "Lng": -118.47
  },
  {
    "StationCode": "KCASANTA4733",
    "StationName": "Pico",
    "StationAddress": "Santa Monica, CA",
    "StationFullAddress": "Pico, Santa Monica, CA 90404",
    "ZipCode": "90404",
    "Lat": 34.03,
    "Lng": -118.47
  },
  {
    "StationCode": "KCAMALIB151",
    "StationName": "Point Dume",
    "StationAddress": "Malibu, CA",
    "StationFullAddress": "Point Dume, Malibu, CA 90265",
    "ZipCode": "90265",
    "Lat": 34.031246,
    "Lng": -118.788193
  },
  {
    "StationCode": "KCAPACIF367",
    "StationName": "Riviera",
    "StationAddress": "Pacific Palisades, CA",
    "StationFullAddress": "Riviera, Pacific Palisades, CA 90272",
    "ZipCode": "90272",
    "Lat": 34.08066,
    "Lng": -118.54459
  },
  {
    "StationCode": "KCAAGOUR101",
    "StationName": "Santa Monica Mountains",
    "StationAddress": "Agoura Hills, CA",
    "StationFullAddress": "Santa Monica Mountains, Agoura Hills, CA 91376",
    "ZipCode": "91376",
    "Lat": 34.142000,
    "Lng": -118.752860
  },
  {
    "StationCode": "KCACALAB72",
    "StationName": "Santa Monica Mountains",
    "StationAddress": "Calabasas, CA",
    "StationFullAddress": "Santa Monica Mountains Visitor Center, 26876 Mulholland Highway, Calabasas, CA 91302",
    "ZipCode": "91302",
    "Lat": 34.1046,
    "Lng": -118.7090
  },
  {
    "StationCode": "KCAMALIB110",
    "StationName": "Santa Monica Mountains",
    "StationAddress": "Malibu, CA",
    "StationFullAddress": "Santa Monica Mountains (Solstice Canyon), Malibu, CA 90265",
    "ZipCode": "90265",
    "Lat": 34.0350,
    "Lng": -118.7445
  },
  {
    "StationCode": "KCAMALIB158",
    "StationName": "Santa Monica Mountains",
    "StationAddress": "Malibu, CA",
    "StationFullAddress": "Santa Monica Mountains (Solstice Canyon), Malibu, CA 90265",
    "ZipCode": "90265",
    "Lat": 34.0350,
    "Lng": -118.7445
  },
  {
    "StationCode": "KSMO",
    "StationName": "Santa Monica Muni",
    "StationAddress": "Santa Monica, CA",
    "StationFullAddress": "Santa Monica Municipal Airport, 3223 Donald Douglas Loop S, Santa Monica, CA 90405",
    "ZipCode": "90405",
    "Lat": 34.0158219,
    "Lng": -118.4513061
  },
  {
    "StationCode": "KCALOSAN1201",
    "StationName": "Sawtelle",
    "StationAddress": "Los Angeles, CA",
    "StationFullAddress": "Sawtelle, Los Angeles, CA 90025",
    "ZipCode": "90025",
    "Lat": 34.04551,
    "Lng": -118.44583
  },
  {
    "StationCode": "KCALOSAN842",
    "StationName": "Sawtelle",
    "StationAddress": "Los Angeles, CA",
    "StationFullAddress": "Sawtelle, Los Angeles, CA 90025",
    "ZipCode": "90025",
    "Lat": 34.04551,
    "Lng": -118.44583
  },
  {
    "StationCode": "KCASANTA630",
    "StationName": "SM/Brentwood",
    "StationAddress": "Santa Monica, CA",
    "StationFullAddress": "SM/Brentwood, Santa Monica, CA 90403",
    "ZipCode": "90403",
    "Lat": 34.03164,
    "Lng": -118.48975
  },
  {
    "StationCode": "KCAMALIB52",
    "StationName": "Tapia Reclamation Facility",
    "StationAddress": "Malibu, CA",
    "StationFullAddress": "Tapia Water Reclamation Facility, 4232 Las Virgenes Road, Calabasas, CA 91302",
    "ZipCode": "91302",
    "Lat": 34.12295,
    "Lng": -118.67193
  },
  {
    "StationCode": "KCASANTA4711",
    "StationName": "The Palisades",
    "StationAddress": "Santa Monica, CA",
    "StationFullAddress": "The Palisades, Santa Monica, CA 90402",
    "ZipCode": "90402",
    "Lat": 34.03598,
    "Lng": -118.50391
  },
  {
    "StationCode": "KCATOPAN28",
    "StationName": "Topanga",
    "StationAddress": "Topanga, CA",
    "StationFullAddress": "Topanga, CA 90290",
    "ZipCode": "90290",
    "Lat": 34.09725,
    "Lng": -118.6125
  },
  {
    "StationCode": "KCATOPAN31",
    "StationName": "Topanga",
    "StationAddress": "Topanga, CA",
    "StationFullAddress": "Topanga, CA 90290",
    "ZipCode": "90290",
    "Lat": 34.09725,
    "Lng": -118.6125
  },
  {
    "StationCode": "KCATOPAN32",
    "StationName": "Topanga",
    "StationAddress": "Topanga, CA",
    "StationFullAddress": "Topanga, CA 90290",
    "ZipCode": "90290",
    "Lat": 34.09725,
    "Lng": -118.6125
  },
  {
    "StationCode": "KCATOPAN40",
    "StationName": "Topanga",
    "StationAddress": "Topanga, CA",
    "StationFullAddress": "Topanga, CA 90290",
    "ZipCode": "90290",
    "Lat": 34.09725,
    "Lng": -118.6125
  },
  {
    "StationCode": "KCATOPAN43",
    "StationName": "Topanga",
    "StationAddress": "Topanga, CA",
    "StationFullAddress": "Topanga, CA 90290",
    "ZipCode": "90290",
    "Lat": 34.09725,
    "Lng": -118.6125
  },
  {
    "StationCode": "KCATOPAN47",
    "StationName": "Topanga",
    "StationAddress": "Topanga, CA",
    "StationFullAddress": "Topanga, CA 90290",
    "ZipCode": "90290",
    "Lat": 34.09725,
    "Lng": -118.6125
  },
  {
    "StationCode": "KCATOPAN52",
    "StationName": "Topanga",
    "StationAddress": "Topanga, CA",
    "StationFullAddress": "Topanga, CA 90290",
    "ZipCode": "90290",
    "Lat": 34.09725,
    "Lng": -118.6125
  },
  {
    "StationCode": "KCATOPAN55",
    "StationName": "Topanga",
    "StationAddress": "Topanga, CA",
    "StationFullAddress": "Topanga, CA 90290",
    "ZipCode": "90290",
    "Lat": 34.09725,
    "Lng": -118.6125
  },
  {
    "StationCode": "KCATOPAN62",
    "StationName": "Topanga",
    "StationAddress": "Topanga, CA",
    "StationFullAddress": "Topanga, CA 90290",
    "ZipCode": "90290",
    "Lat": 34.09725,
    "Lng": -118.6125
  },
  {
    "StationCode": "KCALOSAN1130",
    "StationName": "West Los Angeles",
    "StationAddress": "Los Angeles, CA",
    "StationFullAddress": "West Los Angeles, CA 90025",
    "ZipCode": "90025",
    "Lat": 34.04551,
    "Lng": -118.44583
  },
  {
    "StationCode": "KCASANTA4632",
    "StationName": "Wilshire",
    "StationAddress": "Santa Monica, CA",
    "StationFullAddress": "Wilshire, Santa Monica, CA 90403",
    "ZipCode": "90403",
    "Lat": 34.03164,
    "Lng": -118.48975
  },
  {
    "StationCode": "KCASANTA2881",
    "StationName": "Wilshire/Montana",
    "StationAddress": "Santa Monica, CA",
    "StationFullAddress": "Wilshire/Montana, Santa Monica, CA 90403",
    "ZipCode": "90403",
    "Lat": 34.023935,
    "Lng": -118.493419
  },
  {
    "StationCode": "KLAX",
    "StationName": "Los Angeles International Airport",
    "StationAddress": "1 World Way, Los Angeles, CA 90045",
    "StationFullAddress": "1 World Way, Los Angeles, CA 90045",
    "ZipCode": "90045",
    "Lat": 33.942387,
    "Lng": -118.416062
  },
  {
    "StationCode": "KTOA",
    "StationName": "Zamperini Fld",
    "StationAddress": "Torrance, CA",
    "StationFullAddress": "Zamperini Field, 3301 Airport Drive, Torrance, CA 90505",
    "ZipCode": "90505",
    "Lat": 33.80338,
    "Lng": -118.33961
  },
  {
    "StationCode": "KCASANTA4447",
    "StationName": "Rustic Canyon",
    "StationAddress": "Santa Monica, CA",
    "StationFullAddress": "Rustic Canyon Park",
    "ZipCode": "90402",
    "Lat": 34.035,
    "Lng": -118.504
  }
]